[{"OBJECT_NAME":"STARLINK-2326","OBJECT_ID":"2021-021L","EPOCH":"2026-03-09T21:06:56.863584","MEAN_MOTION":15.30185263,"ECCENTRICITY":9.358e-5,"INCLINATION":53.1577,"RA_OF_ASC_NODE":280.0985,"ARG_OF_PERICENTER":92.4868,"MEAN_ANOMALY":267.624,"EPHEMERIS_TYPE":0,"CLASSIFICATION_TYPE":"U","NORAD_CAT_ID":47870,"ELEMENT_SET_NO":999,"REV_AT_EPOCH":27599,"BSTAR":-0.00017423369,"MEAN_MOTION_DOT":-5.513e-5,"MEAN_MOTION_DDOT":0},{"OBJECT_NAME":"NUSAT-35 (WILLIAMINA)","OBJECT_ID":"2023-001AR","EPOCH":"2026-03-09T22:28:40.425600","MEAN_MOTION":15.3245616,"ECCENTRICITY":0.00136635,"INCLINATION":97.1993,"RA_OF_ASC_NODE":124.278,"ARG_OF_PERICENTER":97.0313,"MEAN_ANOMALY":263.2484,"EPHEMERIS_TYPE":0,"CLASSIFICATION_TYPE":"U","NORAD_CAT_ID":55048,"ELEMENT_SET_NO":999,"REV_AT_EPOCH":17719,"BSTAR":0.00053479647,"MEAN_MOTION_DOT":0.0001675,"MEAN_MOTION_DDOT":0}]
